{
"type": "FeatureCollection",
"name": "WinnipegSupermarketPOI_OSM",
"crs": { "type": "name", "properties": { "name": "urn:ogc:def:crs:OGC:1.3:CRS84" } },
"features": [
{ "type": "Feature", "properties": { "Join_Count": 1, "TARGET_FID": 163, "osm_id": "35352589", "code": 2501, "fclass": "supermarket", "name": "Sobeys", "ID": 728, "Name_1": "Rivergrove", "ORIG_FID": 158, "NETWORK_ID": 1 }, "geometry": { "type": "Point", "coordinates": [ -97.088853359295058, 49.957966308098719 ] } },
{ "type": "Feature", "properties": { "Join_Count": 1, "TARGET_FID": 207, "osm_id": "39239408", "code": 2501, "fclass": "supermarket", "name": "FreshCo", "ID": 129, "Name_1": "Maybank", "ORIG_FID": 173, "NETWORK_ID": 1 }, "geometry": { "type": "Point", "coordinates": [ -97.154092828121463, 49.840290344823586 ] } },
{ "type": "Feature", "properties": { "Join_Count": 1, "TARGET_FID": 225, "osm_id": "40997347", "code": 2501, "fclass": "supermarket", "name": "Real Canadian Superstore", "ID": 226, "Name_1": "Fairfield Park", "ORIG_FID": 191, "NETWORK_ID": 1 }, "geometry": { "type": "Point", "coordinates": [ -97.163666932382966, 49.799850692255689 ] } },
{ "type": "Feature", "properties": { "Join_Count": 1, "TARGET_FID": 243, "osm_id": "50114428", "code": 2501, "fclass": "supermarket", "name": "Walmart Supercentre", "ID": 286, "Name_1": "Crestview", "ORIG_FID": 209, "NETWORK_ID": 1 }, "geometry": { "type": "Point", "coordinates": [ -97.313178418549114, 49.885855123115505 ] } },
{ "type": "Feature", "properties": { "Join_Count": 1, "TARGET_FID": 248, "osm_id": "51867819", "code": 2501, "fclass": "supermarket", "name": "Sobeys", "ID": 43, "Name_1": "Worthington", "ORIG_FID": 214, "NETWORK_ID": 1 }, "geometry": { "type": "Point", "coordinates": [ -97.094777126163422, 49.838676133696652 ] } },
{ "type": "Feature", "properties": { "Join_Count": 1, "TARGET_FID": 255, "osm_id": "54717639", "code": 2501, "fclass": "supermarket", "name": "Safeway", "ID": 47, "Name_1": "Linden Woods", "ORIG_FID": 221, "NETWORK_ID": 1 }, "geometry": { "type": "Point", "coordinates": [ -97.201461109542549, 49.825850132177891 ] } },
{ "type": "Feature", "properties": { "Join_Count": 1, "TARGET_FID": 271, "osm_id": "54896690", "code": 2501, "fclass": "supermarket", "name": "Gill's Supermarket", "ID": 28, "Name_1": "Richmond West", "ORIG_FID": 237, "NETWORK_ID": 1 }, "geometry": { "type": "Point", "coordinates": [ -97.158763177478647, 49.787736922321187 ] } },
{ "type": "Feature", "properties": { "Join_Count": 1, "TARGET_FID": 291, "osm_id": "55536466", "code": 2501, "fclass": "supermarket", "name": "No Frills", "ID": 59, "Name_1": "Grant Park", "ORIG_FID": 257, "NETWORK_ID": 1 }, "geometry": { "type": "Point", "coordinates": [ -97.153382014768113, 49.856803968728229 ] } },
{ "type": "Feature", "properties": { "Join_Count": 1, "TARGET_FID": 308, "osm_id": "56722728", "code": 2501, "fclass": "supermarket", "name": "Sobeys", "ID": 868, "Name_1": "Kildonan Crossing", "ORIG_FID": 274, "NETWORK_ID": 1 }, "geometry": { "type": "Point", "coordinates": [ -97.067474085660479, 49.904196589401124 ] } },
{ "type": "Feature", "properties": { "Join_Count": 1, "TARGET_FID": 537, "osm_id": "71798472", "code": 2501, "fclass": "supermarket", "name": "Real Canadian Superstore", "ID": 634, "Name_1": "Leila-McPhillips Triangle", "ORIG_FID": 386, "NETWORK_ID": 1 }, "geometry": { "type": "Point", "coordinates": [ -97.156023721117776, 49.949246607445048 ] } },
{ "type": "Feature", "properties": { "Join_Count": 1, "TARGET_FID": 538, "osm_id": "71798503", "code": 2501, "fclass": "supermarket", "name": "FreshCo", "ID": 634, "Name_1": "Leila-McPhillips Triangle", "ORIG_FID": 387, "NETWORK_ID": 1 }, "geometry": { "type": "Point", "coordinates": [ -97.157700496280825, 49.945002819124852 ] } },
{ "type": "Feature", "properties": { "Join_Count": 1, "TARGET_FID": 602, "osm_id": "72942111", "code": 2501, "fclass": "supermarket", "name": "Real Canadian Superstore", "ID": 115, "Name_1": "Mathers", "ORIG_FID": 423, "NETWORK_ID": 1 }, "geometry": { "type": "Point", "coordinates": [ -97.20371917230193, 49.856431760017756 ] } },
{ "type": "Feature", "properties": { "Join_Count": 1, "TARGET_FID": 605, "osm_id": "72942180", "code": 2501, "fclass": "supermarket", "name": "Safeway", "ID": 7, "Name_1": "Montcalm", "ORIG_FID": 426, "NETWORK_ID": 1 }, "geometry": { "type": "Point", "coordinates": [ -97.154832703966065, 49.811948210541516 ] } },
{ "type": "Feature", "properties": { "Join_Count": 1, "TARGET_FID": 609, "osm_id": "72942375", "code": 2501, "fclass": "supermarket", "name": "Family Foods", "ID": 429, "Name_1": "King Edward", "ORIG_FID": 430, "NETWORK_ID": 1 }, "geometry": { "type": "Point", "coordinates": [ -97.2193364626076, 49.879574050202336 ] } },
{ "type": "Feature", "properties": { "Join_Count": 1, "TARGET_FID": 613, "osm_id": "73315461", "code": 2501, "fclass": "supermarket", "name": "Safeway", "ID": 1172, "Name_1": "Central St. Boniface", "ORIG_FID": 434, "NETWORK_ID": 1 }, "geometry": { "type": "Point", "coordinates": [ -97.114720399226997, 49.882197999438176 ] } },
{ "type": "Feature", "properties": { "Join_Count": 1, "TARGET_FID": 1052, "osm_id": "82349043", "code": 2501, "fclass": "supermarket", "name": "Odd Lots", "ID": 121, "Name_1": "Minto", "ORIG_FID": 511, "NETWORK_ID": 1 }, "geometry": { "type": "Point", "coordinates": [ -97.18295916553302, 49.892654715442802 ] } },
{ "type": "Feature", "properties": { "Join_Count": 1, "TARGET_FID": 1155, "osm_id": "83572142", "code": 2501, "fclass": "supermarket", "name": "Real Canadian Superstore", "ID": 766, "Name_1": "Valley Gardens", "ORIG_FID": 521, "NETWORK_ID": 1 }, "geometry": { "type": "Point", "coordinates": [ -97.069730499962589, 49.928087686597507 ] } },
{ "type": "Feature", "properties": { "Join_Count": 1, "TARGET_FID": 1502, "osm_id": "96522274", "code": 2501, "fclass": "supermarket", "name": "Real Canadian Superstore", "ID": 391, "Name_1": "St. James Industrial", "ORIG_FID": 593, "NETWORK_ID": 1 }, "geometry": { "type": "Point", "coordinates": [ -97.19889369438846, 49.900028064443688 ] } },
{ "type": "Feature", "properties": { "Join_Count": 1, "TARGET_FID": 1509, "osm_id": "96666915", "code": 2501, "fclass": "supermarket", "name": "Safeway", "ID": 1342, "Name_1": "Roslyn", "ORIG_FID": 600, "NETWORK_ID": 1 }, "geometry": { "type": "Point", "coordinates": [ -97.148457015179076, 49.879484338331622 ] } },
{ "type": "Feature", "properties": { "Join_Count": 1, "TARGET_FID": 1678, "osm_id": "99048757", "code": 2501, "fclass": "supermarket", "name": "Sobey's", "ID": 286, "Name_1": "Crestview", "ORIG_FID": 723, "NETWORK_ID": 1 }, "geometry": { "type": "Point", "coordinates": [ -97.311166834781545, 49.885870347738432 ] } },
{ "type": "Feature", "properties": { "Join_Count": 1, "TARGET_FID": 1764, "osm_id": "102025384", "code": 2501, "fclass": "supermarket", "name": "Foodfare", "ID": 199, "Name_1": "St. Matthews", "ORIG_FID": 774, "NETWORK_ID": 1 }, "geometry": { "type": "Point", "coordinates": [ -97.170268152253414, 49.885730665937558 ] } },
{ "type": "Feature", "properties": { "Join_Count": 1, "TARGET_FID": 2193, "osm_id": "114899525", "code": 2501, "fclass": "supermarket", "name": "Safeway", "ID": 1320, "Name_1": "Lord Roberts", "ORIG_FID": 933, "NETWORK_ID": 1 }, "geometry": { "type": "Point", "coordinates": [ -97.133684610955981, 49.862818203797133 ] } },
{ "type": "Feature", "properties": { "Join_Count": 1, "TARGET_FID": 2201, "osm_id": "115758707", "code": 2501, "fclass": "supermarket", "name": "Safeway", "ID": 97, "Name_1": "Polo Park", "ORIG_FID": 941, "NETWORK_ID": 1 }, "geometry": { "type": "Point", "coordinates": [ -97.204848733382278, 49.882015238312647 ] } },
{ "type": "Feature", "properties": { "Join_Count": 1, "TARGET_FID": 2215, "osm_id": "116894789", "code": 2501, "fclass": "supermarket", "name": "Foodfare", "ID": 1344, "Name_1": "McMillan", "ORIG_FID": 955, "NETWORK_ID": 1 }, "geometry": { "type": "Point", "coordinates": [ -97.157000813836476, 49.869781519501601 ] } },
{ "type": "Feature", "properties": { "Join_Count": 1, "TARGET_FID": 2232, "osm_id": "120110406", "code": 2501, "fclass": "supermarket", "name": "Sobeys", "ID": 25, "Name_1": "Weston Shops", "ORIG_FID": 972, "NETWORK_ID": 1 }, "geometry": { "type": "Point", "coordinates": [ -97.160352700416752, 49.916784800278378 ] } },
{ "type": "Feature", "properties": { "Join_Count": 1, "TARGET_FID": 2311, "osm_id": "128694639", "code": 2501, "fclass": "supermarket", "name": "FreshCo", "ID": 36, "Name_1": "Daniel McIntyre", "ORIG_FID": 1010, "NETWORK_ID": 1 }, "geometry": { "type": "Point", "coordinates": [ -97.159157477135807, 49.895780275039726 ] } },
{ "type": "Feature", "properties": { "Join_Count": 1, "TARGET_FID": 2315, "osm_id": "128694643", "code": 2501, "fclass": "supermarket", "name": "Tmadahan Food Mart", "ID": 36, "Name_1": "Daniel McIntyre", "ORIG_FID": 1014, "NETWORK_ID": 1 }, "geometry": { "type": "Point", "coordinates": [ -97.173112546007133, 49.896763113526902 ] } },
{ "type": "Feature", "properties": { "Join_Count": 1, "TARGET_FID": 2490, "osm_id": "134623166", "code": 2501, "fclass": "supermarket", "name": "Sobeys", "ID": 761, "Name_1": "Rossmere-A", "ORIG_FID": 1135, "NETWORK_ID": 1 }, "geometry": { "type": "Point", "coordinates": [ -97.094527085856271, 49.933615384842199 ] } },
{ "type": "Feature", "properties": { "Join_Count": 1, "TARGET_FID": 2840, "osm_id": "149505343", "code": 2501, "fclass": "supermarket", "name": "Co-op", "ID": 1194, "Name_1": "Southdale", "ORIG_FID": 1306, "NETWORK_ID": 1 }, "geometry": { "type": "Point", "coordinates": [ -97.073415900123678, 49.854477326367544 ] } },
{ "type": "Feature", "properties": { "Join_Count": 1, "TARGET_FID": 3585, "osm_id": "201849745", "code": 2501, "fclass": "supermarket", "name": "Safeway Mountain & McGregor", "ID": 217, "Name_1": "Inkster-Faraday", "ORIG_FID": 1558, "NETWORK_ID": 1 }, "geometry": { "type": "Point", "coordinates": [ -97.144808909903247, 49.924146836707223 ] } },
{ "type": "Feature", "properties": { "Join_Count": 1, "TARGET_FID": 3893, "osm_id": "237059867", "code": 2501, "fclass": "supermarket", "name": "No Frills", "ID": 1589, "Name_1": "Westdale", "ORIG_FID": 1667, "NETWORK_ID": 1 }, "geometry": { "type": "Point", "coordinates": [ -97.3156651609184, 49.862269592167991 ] } },
{ "type": "Feature", "properties": { "Join_Count": 1, "TARGET_FID": 3932, "osm_id": "238524506", "code": 2501, "fclass": "supermarket", "name": "Real Canadian Superstore", "ID": 1230, "Name_1": "Glenwood", "ORIG_FID": 1686, "NETWORK_ID": 1 }, "geometry": { "type": "Point", "coordinates": [ -97.102768527945159, 49.857596536750805 ] } },
{ "type": "Feature", "properties": { "Join_Count": 1, "TARGET_FID": 3988, "osm_id": "243735462", "code": 2501, "fclass": "supermarket", "name": "Young's Market", "ID": 21, "Name_1": "Shaughnessy Park", "ORIG_FID": 1725, "NETWORK_ID": 1 }, "geometry": { "type": "Point", "coordinates": [ -97.167719928631755, 49.931018123887384 ] } },
{ "type": "Feature", "properties": { "Join_Count": 1, "TARGET_FID": 4112, "osm_id": "255737697", "code": 2501, "fclass": "supermarket", "name": "No Frills", "ID": 197, "Name_1": "Spence", "ORIG_FID": 1789, "NETWORK_ID": 1 }, "geometry": { "type": "Point", "coordinates": [ -97.156475196073416, 49.899904395071815 ] } },
{ "type": "Feature", "properties": { "Join_Count": 1, "TARGET_FID": 4360, "osm_id": "272195818", "code": 2501, "fclass": "supermarket", "name": "FreshCo", "ID": 1252, "Name_1": "Alpine Place", "ORIG_FID": 1961, "NETWORK_ID": 1 }, "geometry": { "type": "Point", "coordinates": [ -97.101490032838683, 49.855319487504403 ] } },
{ "type": "Feature", "properties": { "Join_Count": 1, "TARGET_FID": 4553, "osm_id": "289480847", "code": 2501, "fclass": "supermarket", "name": "Real Canadian Superstore", "ID": 964, "Name_1": "Regent", "ORIG_FID": 2094, "NETWORK_ID": 1 }, "geometry": { "type": "Point", "coordinates": [ -97.066411281255569, 49.894264602629335 ] } },
{ "type": "Feature", "properties": { "Join_Count": 1, "TARGET_FID": 4555, "osm_id": "289740243", "code": 2501, "fclass": "supermarket", "name": "Real Canadian Superstore", "ID": 327, "Name_1": "Sturgeon Creek", "ORIG_FID": 2096, "NETWORK_ID": 1 }, "geometry": { "type": "Point", "coordinates": [ -97.288424577432295, 49.882734028652578 ] } },
{ "type": "Feature", "properties": { "Join_Count": 1, "TARGET_FID": 4564, "osm_id": "293804635", "code": 2501, "fclass": "supermarket", "name": "Walmart Supercentre", "ID": 59, "Name_1": "Grant Park", "ORIG_FID": 2099, "NETWORK_ID": 1 }, "geometry": { "type": "Point", "coordinates": [ -97.15872653460184, 49.853158011932749 ] } },
{ "type": "Feature", "properties": { "Join_Count": 1, "TARGET_FID": 4905, "osm_id": "336600019", "code": 2501, "fclass": "supermarket", "name": "Sobeys", "ID": 1198, "Name_1": "Sage Creek", "ORIG_FID": 2298, "NETWORK_ID": 1 }, "geometry": { "type": "Point", "coordinates": [ -97.047981638241993, 49.832117135197677 ] } },
{ "type": "Feature", "properties": { "Join_Count": 1, "TARGET_FID": 5403, "osm_id": "369714997", "code": 2501, "fclass": "supermarket", "name": "Co-op", "ID": 1725, "Name_1": "Bridgwater Centre", "ORIG_FID": 2750, "NETWORK_ID": 1 }, "geometry": { "type": "Point", "coordinates": [ -97.197486760805305, 49.799154716816759 ] } },
{ "type": "Feature", "properties": { "Join_Count": 1, "TARGET_FID": 5619, "osm_id": "430131075", "code": 2501, "fclass": "supermarket", "name": "Save-On-Foods", "ID": 1725, "Name_1": "Bridgwater Centre", "ORIG_FID": 2815, "NETWORK_ID": 1 }, "geometry": { "type": "Point", "coordinates": [ -97.199324395904114, 49.798026767321517 ] } },
{ "type": "Feature", "properties": { "Join_Count": 1, "TARGET_FID": 5744, "osm_id": "454372757", "code": 2501, "fclass": "supermarket", "name": "Neechi Common", "ID": 1022, "Name_1": "North Point Douglas", "ORIG_FID": 2875, "NETWORK_ID": 1 }, "geometry": { "type": "Point", "coordinates": [ -97.132847418573476, 49.908985045823272 ] } },
{ "type": "Feature", "properties": { "Join_Count": 1, "TARGET_FID": 6364, "osm_id": "575141422", "code": 2501, "fclass": "supermarket", "name": "Sobeys", "ID": 174, "Name_1": "River Park South", "ORIG_FID": 3068, "NETWORK_ID": 1 }, "geometry": { "type": "Point", "coordinates": [ -97.09546884421178, 49.810592031097428 ] } },
{ "type": "Feature", "properties": { "Join_Count": 1, "TARGET_FID": 6509, "osm_id": "618959971", "code": 2501, "fclass": "supermarket", "name": "Jardins St-Leons Garden", "ID": 1230, "Name_1": "Glenwood", "ORIG_FID": 3115, "NETWORK_ID": 1 }, "geometry": { "type": "Point", "coordinates": [ -97.112958560788911, 49.871644702541062 ] } },
{ "type": "Feature", "properties": { "Join_Count": 1, "TARGET_FID": 7861, "osm_id": "776383091", "code": 2501, "fclass": "supermarket", "name": "FreshCo", "ID": 722, "Name_1": "Munroe West", "ORIG_FID": 3308, "NETWORK_ID": 1 }, "geometry": { "type": "Point", "coordinates": [ -97.103188347664059, 49.926825704842486 ] } },
{ "type": "Feature", "properties": { "Join_Count": 1, "TARGET_FID": 8122, "osm_id": "843616500", "code": 2501, "fclass": "supermarket", "name": "Young's Trading", "ID": 79, "Name_1": "Centennial", "ORIG_FID": 3364, "NETWORK_ID": 1 }, "geometry": { "type": "Point", "coordinates": [ -97.145459112547996, 49.901187188038364 ] } },
{ "type": "Feature", "properties": { "Join_Count": 1, "TARGET_FID": 8580, "osm_id": "906669314", "code": 2501, "fclass": "supermarket", "name": "Sukh Supermarket", "ID": 1484, "Name_1": "Wolseley", "ORIG_FID": 3454, "NETWORK_ID": 1 }, "geometry": { "type": "Point", "coordinates": [ -97.164747444439001, 49.882188704045518 ] } },
{ "type": "Feature", "properties": { "Join_Count": 1, "TARGET_FID": 9081, "osm_id": "1044672949", "code": 2501, "fclass": "supermarket", "name": "LUCKY Superrmarket", "ID": 143, "Name_1": "Pacific Industrial", "ORIG_FID": 3640, "NETWORK_ID": 1 }, "geometry": { "type": "Point", "coordinates": [ -97.173140296387544, 49.907118827571878 ] } },
{ "type": "Feature", "properties": { "Join_Count": 1, "TARGET_FID": 9085, "osm_id": "1045104096", "code": 2501, "fclass": "supermarket", "name": "Red River Co-op Food Store", "ID": 152, "Name_1": "Tuxedo Industrial", "ORIG_FID": 3644, "NETWORK_ID": 1 }, "geometry": { "type": "Point", "coordinates": [ -97.221476900338644, 49.843658590071925 ] } },
{ "type": "Feature", "properties": { "Join_Count": 1, "TARGET_FID": 9259, "osm_id": "1075549761", "code": 2501, "fclass": "supermarket", "name": "Mom & Dad's Grocery", "ID": 201, "Name_1": "St. John's", "ORIG_FID": 3746, "NETWORK_ID": 1 }, "geometry": { "type": "Point", "coordinates": [ -97.1336710851524, 49.920763262514583 ] } },
{ "type": "Feature", "properties": { "Join_Count": 1, "TARGET_FID": 9800, "osm_id": "16248631", "code": 2501, "fclass": "supermarket", "name": "No Frills", "ID": 1172, "Name_1": "Central St. Boniface", "ORIG_FID": 3957, "NETWORK_ID": 1 }, "geometry": { "type": "Point", "coordinates": [ -97.121522915250296, 49.882656126678967 ] } },
{ "type": "Feature", "properties": { "Join_Count": 1, "TARGET_FID": 10350, "osm_id": "1329655378", "code": 2501, "fclass": "supermarket", "name": "Pal's Supermarket", "ID": 142, "Name_1": "Jefferson", "ORIG_FID": 4228, "NETWORK_ID": 1 }, "geometry": { "type": "Point", "coordinates": [ -97.130016699910755, 49.941171299815664 ] } },
{ "type": "Feature", "properties": { "Join_Count": 1, "TARGET_FID": 10374, "osm_id": "1333849248", "code": 2501, "fclass": "supermarket", "name": "Olympia Grocery", "ID": 201, "Name_1": "St. John's", "ORIG_FID": 4246, "NETWORK_ID": 1 }, "geometry": { "type": "Point", "coordinates": [ -97.130498027861677, 49.924252784938119 ] } },
{ "type": "Feature", "properties": { "Join_Count": 1, "TARGET_FID": 10383, "osm_id": "1334116635", "code": 2501, "fclass": "supermarket", "name": "Bannerman Grocery", "ID": 201, "Name_1": "St. John's", "ORIG_FID": 4255, "NETWORK_ID": 1 }, "geometry": { "type": "Point", "coordinates": [ -97.134322449721253, 49.927461299799177 ] } },
{ "type": "Feature", "properties": { "Join_Count": 1, "TARGET_FID": 10384, "osm_id": "1334128755", "code": 2501, "fclass": "supermarket", "name": "New Fresh Food Plus", "ID": 201, "Name_1": "St. John's", "ORIG_FID": 4256, "NETWORK_ID": 1 }, "geometry": { "type": "Point", "coordinates": [ -97.139140331960732, 49.929361926112051 ] } },
{ "type": "Feature", "properties": { "Join_Count": 1, "TARGET_FID": 37, "osm_id": "343547057", "code": 2501, "fclass": "supermarket", "name": "Safeway", "ID": 528, "Name_1": "Tyndall Park", "ORIG_FID": 0, "NETWORK_ID": 1 }, "geometry": { "type": "Point", "coordinates": [ -97.19684059971388, 49.938099099693773 ] } },
{ "type": "Feature", "properties": { "Join_Count": 1, "TARGET_FID": 44, "osm_id": "354707096", "code": 2501, "fclass": "supermarket", "name": "Red River Co-op", "ID": 59, "Name_1": "Grant Park", "ORIG_FID": 0, "NETWORK_ID": 1 }, "geometry": { "type": "Point", "coordinates": [ -97.167839599617764, 49.856697899988148 ] } },
{ "type": "Feature", "properties": { "Join_Count": 1, "TARGET_FID": 54, "osm_id": "367707721", "code": 2501, "fclass": "supermarket", "name": "Downtown Family Foods", "ID": 88, "Name_1": "South Portage", "ORIG_FID": 0, "NETWORK_ID": 1 }, "geometry": { "type": "Point", "coordinates": [ -97.140782100113768, 49.888207399751764 ] } },
{ "type": "Feature", "properties": { "Join_Count": 1, "TARGET_FID": 106, "osm_id": "470536364", "code": 2501, "fclass": "supermarket", "name": "IGA", "ID": 131, "Name_1": "Windsor Park", "ORIG_FID": 0, "NETWORK_ID": 1 }, "geometry": { "type": "Point", "coordinates": [ -97.089333199767339, 49.870423999667878 ] } },
{ "type": "Feature", "properties": { "Join_Count": 1, "TARGET_FID": 108, "osm_id": "472425978", "code": 2501, "fclass": "supermarket", "name": "Marketplace", "ID": 1743, "Name_1": "St. Norbert", "ORIG_FID": 0, "NETWORK_ID": 1 }, "geometry": { "type": "Point", "coordinates": [ -97.15604540017506, 49.767098500295617 ] } },
{ "type": "Feature", "properties": { "Join_Count": 1, "TARGET_FID": 224, "osm_id": "677987485", "code": 2501, "fclass": "supermarket", "name": "Sobeys", "ID": 152, "Name_1": "Tuxedo Industrial", "ORIG_FID": 0, "NETWORK_ID": 1 }, "geometry": { "type": "Point", "coordinates": [ -97.203779300074586, 49.821380499810289 ] } },
{ "type": "Feature", "properties": { "Join_Count": 1, "TARGET_FID": 277, "osm_id": "715819112", "code": 2501, "fclass": "supermarket", "name": "Safeway", "ID": 1546, "Name_1": "Elmhurst", "ORIG_FID": 0, "NETWORK_ID": 1 }, "geometry": { "type": "Point", "coordinates": [ -97.26401749960786, 49.85829799985288 ] } },
{ "type": "Feature", "properties": { "Join_Count": 1, "TARGET_FID": 284, "osm_id": "728539422", "code": 2501, "fclass": "supermarket", "name": "Sobeys", "ID": 59, "Name_1": "Grant Park", "ORIG_FID": 0, "NETWORK_ID": 1 }, "geometry": { "type": "Point", "coordinates": [ -97.164995400117562, 49.852574299764171 ] } },
{ "type": "Feature", "properties": { "Join_Count": 1, "TARGET_FID": 301, "osm_id": "740322984", "code": 2501, "fclass": "supermarket", "name": "Wenkai Garden Fresh", "ID": 7, "Name_1": "Montcalm", "ORIG_FID": 0, "NETWORK_ID": 1 }, "geometry": { "type": "Point", "coordinates": [ -97.154490000213286, 49.809510900307885 ] } },
{ "type": "Feature", "properties": { "Join_Count": 1, "TARGET_FID": 339, "osm_id": "766103682", "code": 2501, "fclass": "supermarket", "name": "Calabria Market", "ID": 139, "Name_1": "West Fort Garry Industrial", "ORIG_FID": 0, "NETWORK_ID": 1 }, "geometry": { "type": "Point", "coordinates": [ -97.19546429973758, 49.816930200168656 ] } },
{ "type": "Feature", "properties": { "Join_Count": 1, "TARGET_FID": 342, "osm_id": "769166177", "code": 2501, "fclass": "supermarket", "name": "Giant Tiger", "ID": 7, "Name_1": "Montcalm", "ORIG_FID": 0, "NETWORK_ID": 1 }, "geometry": { "type": "Point", "coordinates": [ -97.153876800174146, 49.811456400092823 ] } },
{ "type": "Feature", "properties": { "Join_Count": 1, "TARGET_FID": 997, "osm_id": "1122329637", "code": 2501, "fclass": "supermarket", "name": "Save-On-Foods", "ID": 391, "Name_1": "St. James Industrial", "ORIG_FID": 0, "NETWORK_ID": 1 }, "geometry": { "type": "Point", "coordinates": [ -97.202249100015933, 49.889460300152791 ] } },
{ "type": "Feature", "properties": { "Join_Count": 1, "TARGET_FID": 1002, "osm_id": "1124178862", "code": 2501, "fclass": "supermarket", "name": "Supper Central", "ID": 152, "Name_1": "Tuxedo Industrial", "ORIG_FID": 0, "NETWORK_ID": 1 }, "geometry": { "type": "Point", "coordinates": [ -97.208197000191376, 49.822414200355126 ] } },
{ "type": "Feature", "properties": { "Join_Count": 1, "TARGET_FID": 1003, "osm_id": "1124179325", "code": 2501, "fclass": "supermarket", "name": "Bulk Barn", "ID": 152, "Name_1": "Tuxedo Industrial", "ORIG_FID": 0, "NETWORK_ID": 1 }, "geometry": { "type": "Point", "coordinates": [ -97.20823369972544, 49.822177800065447 ] } },
{ "type": "Feature", "properties": { "Join_Count": 1, "TARGET_FID": 1059, "osm_id": "1133392384", "code": 2501, "fclass": "supermarket", "name": "Dino's Grocery Mart", "ID": 168, "Name_1": "West Alexander", "ORIG_FID": 0, "NETWORK_ID": 1 }, "geometry": { "type": "Point", "coordinates": [ -97.150805899572561, 49.900650999643972 ] } },
{ "type": "Feature", "properties": { "Join_Count": 1, "TARGET_FID": 1115, "osm_id": "1148187449", "code": 2501, "fclass": "supermarket", "name": "Herat Market", "ID": 28, "Name_1": "Richmond West", "ORIG_FID": 0, "NETWORK_ID": 1 }, "geometry": { "type": "Point", "coordinates": [ -97.157718999831957, 49.784330099754357 ] } },
{ "type": "Feature", "properties": { "Join_Count": 1, "TARGET_FID": 1360, "osm_id": "1235348763", "code": 2501, "fclass": "supermarket", "name": "La Grotta", "ID": 58, "Name_1": "South River Heights", "ORIG_FID": 0, "NETWORK_ID": 1 }, "geometry": { "type": "Point", "coordinates": [ -97.177922800197052, 49.850946999904181 ] } },
{ "type": "Feature", "properties": { "Join_Count": 1, "TARGET_FID": 2390, "osm_id": "2393053202", "code": 2501, "fclass": "supermarket", "name": "Food Fare", "ID": 286, "Name_1": "Crestview", "ORIG_FID": 0, "NETWORK_ID": 1 }, "geometry": { "type": "Point", "coordinates": [ -97.299836199880701, 49.89207549988447 ] } },
{ "type": "Feature", "properties": { "Join_Count": 1, "TARGET_FID": 2392, "osm_id": "2405474205", "code": 2501, "fclass": "supermarket", "name": "Safeway", "ID": 286, "Name_1": "Crestview", "ORIG_FID": 0, "NETWORK_ID": 1 }, "geometry": { "type": "Point", "coordinates": [ -97.299559300421322, 49.884439199909195 ] } },
{ "type": "Feature", "properties": { "Join_Count": 1, "TARGET_FID": 2399, "osm_id": "2412571169", "code": 2501, "fclass": "supermarket", "name": null, "ID": 634, "Name_1": "Leila-McPhillips Triangle", "ORIG_FID": 0, "NETWORK_ID": 1 }, "geometry": { "type": "Point", "coordinates": [ -97.158985499780954, 49.945007500096096 ] } },
{ "type": "Feature", "properties": { "Join_Count": 1, "TARGET_FID": 2738, "osm_id": "2929619064", "code": 2501, "fclass": "supermarket", "name": "Red River Co-op", "ID": 161, "Name_1": "St. Vital Centre", "ORIG_FID": 0, "NETWORK_ID": 1 }, "geometry": { "type": "Point", "coordinates": [ -97.106299000098716, 49.828505900327116 ] } },
{ "type": "Feature", "properties": { "Join_Count": 1, "TARGET_FID": 2748, "osm_id": "2967022996", "code": 2501, "fclass": "supermarket", "name": "Safeway", "ID": 127, "Name_1": "Edgeland", "ORIG_FID": 0, "NETWORK_ID": 1 }, "geometry": { "type": "Point", "coordinates": [ -97.211861900306417, 49.867154099781942 ] } },
{ "type": "Feature", "properties": { "Join_Count": 1, "TARGET_FID": 2783, "osm_id": "3055953285", "code": 2501, "fclass": "supermarket", "name": "Safeway", "ID": 333, "Name_1": "Heritage Park", "ORIG_FID": 0, "NETWORK_ID": 1 }, "geometry": { "type": "Point", "coordinates": [ -97.281106400040301, 49.88903619966095 ] } },
{ "type": "Feature", "properties": { "Join_Count": 1, "TARGET_FID": 3184, "osm_id": "3976247477", "code": 2501, "fclass": "supermarket", "name": "Sobeys", "ID": 166, "Name_1": "Fort Richmond", "ORIG_FID": 0, "NETWORK_ID": 1 }, "geometry": { "type": "Point", "coordinates": [ -97.155205300284365, 49.789329100057955 ] } },
{ "type": "Feature", "properties": { "Join_Count": 1, "TARGET_FID": 3745, "osm_id": "4934711921", "code": 2501, "fclass": "supermarket", "name": "Value Village", "ID": 986, "Name_1": "Tyne-Tees", "ORIG_FID": 0, "NETWORK_ID": 1 }, "geometry": { "type": "Point", "coordinates": [ -97.083449500394067, 49.900588199985521 ] } },
{ "type": "Feature", "properties": { "Join_Count": 1, "TARGET_FID": 3861, "osm_id": "5057146193", "code": 2501, "fclass": "supermarket", "name": "My Spice House", "ID": 1450, "Name_1": "Pembina Strip", "ORIG_FID": 0, "NETWORK_ID": 1 }, "geometry": { "type": "Point", "coordinates": [ -97.153830799851505, 49.821818400398911 ] } },
{ "type": "Feature", "properties": { "Join_Count": 1, "TARGET_FID": 4005, "osm_id": "5359996922", "code": 2501, "fclass": "supermarket", "name": "Safeway", "ID": 761, "Name_1": "Rossmere-A", "ORIG_FID": 0, "NETWORK_ID": 1 }, "geometry": { "type": "Point", "coordinates": [ -97.082668799825228, 49.94617950018386 ] } },
{ "type": "Feature", "properties": { "Join_Count": 1, "TARGET_FID": 4724, "osm_id": "8121990308", "code": 2501, "fclass": "supermarket", "name": "Bulk Barn", "ID": 286, "Name_1": "Crestview", "ORIG_FID": 0, "NETWORK_ID": 1 }, "geometry": { "type": "Point", "coordinates": [ -97.31285549988138, 49.883752400253115 ] } },
{ "type": "Feature", "properties": { "Join_Count": 1, "TARGET_FID": 5432, "osm_id": "9949591669", "code": 2501, "fclass": "supermarket", "name": "No Frills", "ID": 702, "Name_1": "Luxton", "ORIG_FID": 0, "NETWORK_ID": 1 }, "geometry": { "type": "Point", "coordinates": [ -97.123297999802787, 49.926501500144184 ] } },
{ "type": "Feature", "properties": { "Join_Count": 1, "TARGET_FID": 5436, "osm_id": "9949591674", "code": 2501, "fclass": "supermarket", "name": "Perogy Planet", "ID": 702, "Name_1": "Luxton", "ORIG_FID": 0, "NETWORK_ID": 1 }, "geometry": { "type": "Point", "coordinates": [ -97.124977999934686, 49.925335899632103 ] } },
{ "type": "Feature", "properties": { "Join_Count": 1, "TARGET_FID": 5623, "osm_id": "10603048176", "code": 2501, "fclass": "supermarket", "name": "Save-On-Foods", "ID": 1450, "Name_1": "Pembina Strip", "ORIG_FID": 0, "NETWORK_ID": 1 }, "geometry": { "type": "Point", "coordinates": [ -97.15135420003628, 49.822280599769897 ] } },
{ "type": "Feature", "properties": { "Join_Count": 1, "TARGET_FID": 5796, "osm_id": "11048876539", "code": 2501, "fclass": "supermarket", "name": "Save-On-Foods", "ID": 24, "Name_1": "Garden City", "ORIG_FID": 0, "NETWORK_ID": 1 }, "geometry": { "type": "Point", "coordinates": [ -97.155867400060401, 49.94186370044946 ] } },
{ "type": "Feature", "properties": { "Join_Count": 1, "TARGET_FID": 5834, "osm_id": "11071777013", "code": 2501, "fclass": "supermarket", "name": "Trevor & Hayley's NOFRILLS", "ID": 740, "Name_1": "River East", "ORIG_FID": 0, "NETWORK_ID": 1 }, "geometry": { "type": "Point", "coordinates": [ -97.075398100341999, 49.953415100026916 ] } },
{ "type": "Feature", "properties": { "Join_Count": 1, "TARGET_FID": 5951, "osm_id": "11110168777", "code": 2501, "fclass": "supermarket", "name": "Food Fare", "ID": 41, "Name_1": "West Broadway", "ORIG_FID": 0, "NETWORK_ID": 1 }, "geometry": { "type": "Point", "coordinates": [ -97.160741300170855, 49.882006600324416 ] } },
{ "type": "Feature", "properties": { "Join_Count": 1, "TARGET_FID": 5955, "osm_id": "11111093304", "code": 2501, "fclass": "supermarket", "name": "Dobromarket", "ID": 152, "Name_1": "Tuxedo Industrial", "ORIG_FID": 0, "NETWORK_ID": 1 }, "geometry": { "type": "Point", "coordinates": [ -97.214881900179535, 49.842863199976762 ] } },
{ "type": "Feature", "properties": { "Join_Count": 1, "TARGET_FID": 6288, "osm_id": "11544186090", "code": 2501, "fclass": "supermarket", "name": "Madina Supermarket and Halal Meat", "ID": 161, "Name_1": "St. Vital Centre", "ORIG_FID": 0, "NETWORK_ID": 1 }, "geometry": { "type": "Point", "coordinates": [ -97.108841700084383, 49.826462399620084 ] } },
{ "type": "Feature", "properties": { "Join_Count": 1, "TARGET_FID": 6390, "osm_id": "11699289549", "code": 2501, "fclass": "supermarket", "name": "Save-On-Foods", "ID": 964, "Name_1": "Regent", "ORIG_FID": 0, "NETWORK_ID": 1 }, "geometry": { "type": "Point", "coordinates": [ -97.062301699663692, 49.898346200017158 ] } },
{ "type": "Feature", "properties": { "Join_Count": 1, "TARGET_FID": 6748, "osm_id": "11948490170", "code": 2501, "fclass": "supermarket", "name": "Food Fare", "ID": 63, "Name_1": "Silver Heights", "ORIG_FID": 0, "NETWORK_ID": 1 }, "geometry": { "type": "Point", "coordinates": [ -97.24499090010994, 49.876630300248223 ] } },
{ "type": "Feature", "properties": { "Join_Count": 1, "TARGET_FID": 6828, "osm_id": "11988025078", "code": 2501, "fclass": "supermarket", "name": "African Food General", "ID": 124, "Name_1": "Earl Grey", "ORIG_FID": 0, "NETWORK_ID": 1 }, "geometry": { "type": "Point", "coordinates": [ -97.145902599725162, 49.865397900093058 ] } },
{ "type": "Feature", "properties": { "Join_Count": 1, "TARGET_FID": 6968, "osm_id": "12084122190", "code": 2501, "fclass": "supermarket", "name": "Makkar Supermarket", "ID": 528, "Name_1": "Tyndall Park", "ORIG_FID": 0, "NETWORK_ID": 1 }, "geometry": { "type": "Point", "coordinates": [ -97.196573400342118, 49.942719599629868 ] } },
{ "type": "Feature", "properties": { "Join_Count": 1, "TARGET_FID": 6983, "osm_id": "12086315687", "code": 2501, "fclass": "supermarket", "name": "Fil-Mart Corp", "ID": 528, "Name_1": "Tyndall Park", "ORIG_FID": 0, "NETWORK_ID": 1 }, "geometry": { "type": "Point", "coordinates": [ -97.196305399674429, 49.935049999557862 ] } },
{ "type": "Feature", "properties": { "Join_Count": 1, "TARGET_FID": 7057, "osm_id": "12118896281", "code": 2501, "fclass": "supermarket", "name": "Seafood City", "ID": 24, "Name_1": "Garden City", "ORIG_FID": 0, "NETWORK_ID": 1 }, "geometry": { "type": "Point", "coordinates": [ -97.146817200353496, 49.951886400037381 ] } },
{ "type": "Feature", "properties": { "Join_Count": 1, "TARGET_FID": 7376, "osm_id": "12358922309", "code": 2501, "fclass": "supermarket", "name": "Sunny Food", "ID": 95, "Name_1": "Burrows-Keewatin", "ORIG_FID": 0, "NETWORK_ID": 1 }, "geometry": { "type": "Point", "coordinates": [ -97.182863900348707, 49.928180500229928 ] } },
{ "type": "Feature", "properties": { "Join_Count": 1, "TARGET_FID": 7566, "osm_id": "12393693356", "code": 2501, "fclass": "supermarket", "name": "Bulk Barn", "ID": 24, "Name_1": "Garden City", "ORIG_FID": 0, "NETWORK_ID": 1 }, "geometry": { "type": "Point", "coordinates": [ -97.147424800314241, 49.951537999978768 ] } }
]
}
